CCSDS_OMM_VERS = 2.0
CREATION_DATE  = 
ORIGINATOR     = 

OBJECT_NAME    = ORBVIEW 2 (SEASTAR)
OBJECT_ID      = 1997-037A
CENTER_NAME    = EARTH
REF_FRAME      = TEME
TIME_SYSTEM    = UTC
MEAN_ELEMENT_THEORY = SGP/SGP4

EPOCH          = 2025-11-20T16:17:41.420832
MEAN_MOTION    = 14.35393319
ECCENTRICITY   = .00027222
INCLINATION    = 98.8451
RA_OF_ASC_NODE = 121.1996
ARG_OF_PERICENTER = 42.2335
MEAN_ANOMALY   = 317.9058

EPHEMERIS_TYPE = 0
CLASSIFICATION_TYPE = U
NORAD_CAT_ID   = 24883
ELEMENT_SET_NO = 999
REV_AT_EPOCH   = 49283
BSTAR          = .13662075E-3
MEAN_MOTION_DOT = .346E-5
MEAN_MOTION_DDOT = 0

CCSDS_OMM_VERS = 2.0
CREATION_DATE  = 
ORIGINATOR     = 

OBJECT_NAME    = SL-16 R/B
OBJECT_ID      = 1998-043G
CENTER_NAME    = EARTH
REF_FRAME      = TEME
TIME_SYSTEM    = UTC
MEAN_ELEMENT_THEORY = SGP/SGP4

EPOCH          = 2025-11-20T18:23:58.094304
MEAN_MOTION    = 14.26017767
ECCENTRICITY   = .00094206
INCLINATION    = 98.8089
RA_OF_ASC_NODE = 272.4658
ARG_OF_PERICENTER = 336.3744
MEAN_ANOMALY   = 23.7002

EPHEMERIS_TYPE = 0
CLASSIFICATION_TYPE = U
NORAD_CAT_ID   = 25400
ELEMENT_SET_NO = 999
REV_AT_EPOCH   = 42346
BSTAR          = .54580589E-4
MEAN_MOTION_DOT = .85E-6
MEAN_MOTION_DDOT = 0

CCSDS_OMM_VERS = 2.0
CREATION_DATE  = 
ORIGINATOR     = 

OBJECT_NAME    = SL-16 R/B
OBJECT_ID      = 1998-045B
CENTER_NAME    = EARTH
REF_FRAME      = TEME
TIME_SYSTEM    = UTC
MEAN_ELEMENT_THEORY = SGP/SGP4

EPOCH          = 2025-11-20T12:21:36.531360
MEAN_MOTION    = 14.16168641
ECCENTRICITY   = .00082783
INCLINATION    = 71.0123
RA_OF_ASC_NODE = 51.1632
ARG_OF_PERICENTER = 208.0432
MEAN_ANOMALY   = 152.0246

EPHEMERIS_TYPE = 0
CLASSIFICATION_TYPE = U
NORAD_CAT_ID   = 25407
ELEMENT_SET_NO = 999
REV_AT_EPOCH   = 41164
BSTAR          = .20935106E-4
MEAN_MOTION_DOT = -.6E-7
MEAN_MOTION_DDOT = 0

CCSDS_OMM_VERS = 2.0
CREATION_DATE  = 
ORIGINATOR     = 

OBJECT_NAME    = ISS (ZARYA)
OBJECT_ID      = 1998-067A
CENTER_NAME    = EARTH
REF_FRAME      = TEME
TIME_SYSTEM    = UTC
MEAN_ELEMENT_THEORY = SGP/SGP4

EPOCH          = 2025-11-20T20:48:58.837824
MEAN_MOTION    = 15.48935269
ECCENTRICITY   = .00039608
INCLINATION    = 51.6324
RA_OF_ASC_NODE = 250.7347
ARG_OF_PERICENTER = 150.1460
MEAN_ANOMALY   = 209.9755

EPHEMERIS_TYPE = 0
CLASSIFICATION_TYPE = U
NORAD_CAT_ID   = 25544
ELEMENT_SET_NO = 999
REV_AT_EPOCH   = 53946
BSTAR          = .26736525E-3
MEAN_MOTION_DOT = .14275E-3
MEAN_MOTION_DDOT = 0

CCSDS_OMM_VERS = 2.0
CREATION_DATE  = 
ORIGINATOR     = 

OBJECT_NAME    = CZ-4B R/B
OBJECT_ID      = 1999-025C
CENTER_NAME    = EARTH
REF_FRAME      = TEME
TIME_SYSTEM    = UTC
MEAN_ELEMENT_THEORY = SGP/SGP4

EPOCH          = 2025-11-20T14:45:11.475360
MEAN_MOTION    = 14.18235763
ECCENTRICITY   = .0036127
INCLINATION    = 98.6801
RA_OF_ASC_NODE = 6.3862
ARG_OF_PERICENTER = 299.4309
MEAN_ANOMALY   = 214.1901

EPHEMERIS_TYPE = 0
CLASSIFICATION_TYPE = U
NORAD_CAT_ID   = 25732
ELEMENT_SET_NO = 999
REV_AT_EPOCH   = 37270
BSTAR          = .75265142E-4
MEAN_MOTION_DOT = .112E-5
MEAN_MOTION_DDOT = 0

CCSDS_OMM_VERS = 2.0
CREATION_DATE  = 
ORIGINATOR     = 

OBJECT_NAME    = OKEAN-O
OBJECT_ID      = 1999-039A
CENTER_NAME    = EARTH
REF_FRAME      = TEME
TIME_SYSTEM    = UTC
MEAN_ELEMENT_THEORY = SGP/SGP4

EPOCH          = 2025-11-20T09:54:52.389504
MEAN_MOTION    = 14.80106936
ECCENTRICITY   = .00011826
INCLINATION    = 97.9635
RA_OF_ASC_NODE = 20.3050
ARG_OF_PERICENTER = 66.7097
MEAN_ANOMALY   = 293.4239

EPHEMERIS_TYPE = 0
CLASSIFICATION_TYPE = U
NORAD_CAT_ID   = 25860
ELEMENT_SET_NO = 999
REV_AT_EPOCH   = 41822
BSTAR          = .11441671E-3
MEAN_MOTION_DOT = .815E-5
MEAN_MOTION_DDOT = 0

CCSDS_OMM_VERS = 2.0
CREATION_DATE  = 
ORIGINATOR     = 

OBJECT_NAME    = SL-16 R/B
OBJECT_ID      = 1999-039B
CENTER_NAME    = EARTH
REF_FRAME      = TEME
TIME_SYSTEM    = UTC
MEAN_ELEMENT_THEORY = SGP/SGP4

EPOCH          = 2025-11-20T10:18:46.289088
MEAN_MOTION    = 14.81539941
ECCENTRICITY   = .00135617
INCLINATION    = 98.0159
RA_OF_ASC_NODE = 18.5763
ARG_OF_PERICENTER = 250.2058
MEAN_ANOMALY   = 109.7692

EPHEMERIS_TYPE = 0
CLASSIFICATION_TYPE = U
NORAD_CAT_ID   = 25861
ELEMENT_SET_NO = 999
REV_AT_EPOCH   = 42068
BSTAR          = .94669724E-4
MEAN_MOTION_DOT = .689E-5
MEAN_MOTION_DDOT = 0

CCSDS_OMM_VERS = 2.0
CREATION_DATE  = 
ORIGINATOR     = 

OBJECT_NAME    = DELTA 2 R/B
OBJECT_ID      = 1999-041E
CENTER_NAME    = EARTH
REF_FRAME      = TEME
TIME_SYSTEM    = UTC
MEAN_ELEMENT_THEORY = SGP/SGP4

EPOCH          = 2025-11-20T14:52:00.922368
MEAN_MOTION    = 14.11322339
ECCENTRICITY   = .05048931
INCLINATION    = 51.7633
RA_OF_ASC_NODE = 16.7416
ARG_OF_PERICENTER = 26.5832
MEAN_ANOMALY   = 336.0068

EPHEMERIS_TYPE = 0
CLASSIFICATION_TYPE = U
NORAD_CAT_ID   = 25876
ELEMENT_SET_NO = 999
REV_AT_EPOCH   = 34762
BSTAR          = .23433042E-3
MEAN_MOTION_DOT = .121E-4
MEAN_MOTION_DDOT = 0

CCSDS_OMM_VERS = 2.0
CREATION_DATE  = 
ORIGINATOR     = 

OBJECT_NAME    = HELIOS 1B
OBJECT_ID      = 1999-064A
CENTER_NAME    = EARTH
REF_FRAME      = TEME
TIME_SYSTEM    = UTC
MEAN_ELEMENT_THEORY = SGP/SGP4

EPOCH          = 2025-11-20T11:11:24.175392
MEAN_MOTION    = 14.87152683
ECCENTRICITY   = .00025204
INCLINATION    = 98.1756
RA_OF_ASC_NODE = 218.4732
ARG_OF_PERICENTER = 73.3477
MEAN_ANOMALY   = 286.8015

EPHEMERIS_TYPE = 0
CLASSIFICATION_TYPE = U
NORAD_CAT_ID   = 25977
ELEMENT_SET_NO = 999
REV_AT_EPOCH   = 66902
BSTAR          = .24742577E-3
MEAN_MOTION_DOT = .2166E-4
MEAN_MOTION_DDOT = 0

CCSDS_OMM_VERS = 2.0
CREATION_DATE  = 
ORIGINATOR     = 

OBJECT_NAME    = TERRA
OBJECT_ID      = 1999-068A
CENTER_NAME    = EARTH
REF_FRAME      = TEME
TIME_SYSTEM    = UTC
MEAN_ELEMENT_THEORY = SGP/SGP4

EPOCH          = 2025-11-20T19:55:51.275712
MEAN_MOTION    = 14.60916200
ECCENTRICITY   = .00028847
INCLINATION    = 97.9779
RA_OF_ASC_NODE = 17.3150
ARG_OF_PERICENTER = 143.0380
MEAN_ANOMALY   = 348.2701

EPHEMERIS_TYPE = 0
CLASSIFICATION_TYPE = U
NORAD_CAT_ID   = 25994
ELEMENT_SET_NO = 999
REV_AT_EPOCH   = 37918
BSTAR          = .12064231E-3
MEAN_MOTION_DOT = .546E-5
MEAN_MOTION_DDOT = 0

CCSDS_OMM_VERS = 2.0
CREATION_DATE  = 
ORIGINATOR     = 

OBJECT_NAME    = SL-16 R/B
OBJECT_ID      = 2000-006B
CENTER_NAME    = EARTH
REF_FRAME      = TEME
TIME_SYSTEM    = UTC
MEAN_ELEMENT_THEORY = SGP/SGP4

EPOCH          = 2025-11-20T10:21:18.856800
MEAN_MOTION    = 14.15801227
ECCENTRICITY   = .00173017
INCLINATION    = 71.0019
RA_OF_ASC_NODE = 327.5647
ARG_OF_PERICENTER = 339.8996
MEAN_ANOMALY   = 20.1444

EPHEMERIS_TYPE = 0
CLASSIFICATION_TYPE = U
NORAD_CAT_ID   = 26070
ELEMENT_SET_NO = 999
REV_AT_EPOCH   = 33309
BSTAR          = -.36754853E-4
MEAN_MOTION_DOT = -.12E-5
MEAN_MOTION_DDOT = 0

CCSDS_OMM_VERS = 2.0
CREATION_DATE  = 
ORIGINATOR     = 

OBJECT_NAME    = TITAN 4B R/B
OBJECT_ID      = 2000-047B
CENTER_NAME    = EARTH
REF_FRAME      = TEME
TIME_SYSTEM    = UTC
MEAN_ELEMENT_THEORY = SGP/SGP4

EPOCH          = 2025-11-20T19:09:47.684448
MEAN_MOTION    = 15.08557323
ECCENTRICITY   = .00408585
INCLINATION    = 67.9902
RA_OF_ASC_NODE = 346.4677
ARG_OF_PERICENTER = 170.4575
MEAN_ANOMALY   = 189.7360

EPHEMERIS_TYPE = 0
CLASSIFICATION_TYPE = U
NORAD_CAT_ID   = 26474
ELEMENT_SET_NO = 999
REV_AT_EPOCH   = 37648
BSTAR          = .21326172E-3
MEAN_MOTION_DOT = .3267E-4
MEAN_MOTION_DDOT = 0

